[
    {
        "Altitude(m)": 604969.0890639503,
        "Argument of Periapsis(deg)": 0.0,
        "Eccentricity": 0.0,
        "Inclination(deg)": 60.0,
        "Latitude(deg)": -0.09260025466149589,
        "Longitude(deg)": 164.9775274647796,
        "Mean Anomaly(deg)": 0.0,
        "RAAN(deg)": 265.0,
        "Satellite Name": "Test1 1166",
        "Satellite Number": 1166,
        "Semi-Major Axis(m)": 6980739.136638005,
        "Time(s)": 0
    },
    {
        "Altitude(m)": 604900.0289803252,
        "Argument of Periapsis(deg)": 0.00010418945913296404,
        "Eccentricity": 0.0,
        "Inclination(deg)": 60.0,
        "Latitude(deg)": 0.44782522914220374,
        "Longitude(deg)": 165.24565131402738,
        "Mean Anomaly(deg)": 0.620106145461853,
        "RAAN(deg)": 264.99957995086027,
        "Satellite Name": "Test1 1166",
        "Satellite Number": 1166,
        "Semi-Major Axis(m)": 6980739.136638005,
        "Time(s)": 10
    }
]